[{"OBJECT_NAME":"GEESAT-2 03","OBJECT_ID":"2024-023C","EPOCH":"2026-03-09T23:27:51.195168","MEAN_MOTION":14.9659792,"ECCENTRICITY":0.00063134,"INCLINATION":50.0004,"RA_OF_ASC_NODE":73.5934,"ARG_OF_PERICENTER":3.6102,"MEAN_ANOMALY":356.4887,"EPHEMERIS_TYPE":0,"CLASSIFICATION_TYPE":"U","NORAD_CAT_ID":58907,"ELEMENT_SET_NO":999,"REV_AT_EPOCH":11446,"BSTAR":0.00027230842,"MEAN_MOTION_DOT":2.885e-5,"MEAN_MOTION_DDOT":0},{"OBJECT_NAME":"SL-6 R\/B(2)","OBJECT_ID":"1990-055D","EPOCH":"2026-03-09T21:41:59.551872","MEAN_MOTION":15.03595553,"ECCENTRICITY":0.00247741,"INCLINATION":62.7825,"RA_OF_ASC_NODE":253.121,"ARG_OF_PERICENTER":347.1508,"MEAN_ANOMALY":12.8957,"EPHEMERIS_TYPE":0,"CLASSIFICATION_TYPE":"U","NORAD_CAT_ID":20666,"ELEMENT_SET_NO":999,"REV_AT_EPOCH":93822,"BSTAR":0.00020900577,"MEAN_MOTION_DOT":2.688e-5,"MEAN_MOTION_DDOT":0}]
